0 SCOUT B DEB
1 29009U 65063P   13288.88947631 -.00000012  00000-0  10000-3 0  1123
2 29009 069.2252 110.0566 0821514 105.5586 284.9788 11.90790725380343
0 SCOUT B DEB
1 29009U 65063P   13290.14443875 -.00000012  00000-0  10000-3 0  1137
2 29009 069.2194 108.1074 0822028 104.4527 264.8920 11.90791146380493
0 SCOUT B DEB
1 29009U 65063P   13291.15237183 -.00000012  00000-0  10000-3 0  1143
2 29009 069.2194 106.5437 0821778 103.6076 265.7724 11.90791491380618
